start=new Date('2021-12-11T00:00:00.000Z').valueOf();
sats=[{"COUNTRY_CODE":"US","CENTER_NAME":"EARTH","OBJECT_ID":"2020-073M","REF_FRAME":"TEME","PERIOD":"95.592","GP_ID":"191458759","INCLINATION":"53.0573","DECAY_DATE":null,"TLE_LINE1":"1 46681U 20073M   21344.82369349 -.00000919  00000-0 -42834-4 0  9991","MEAN_ELEMENT_THEORY":"SGP4","MEAN_MOTION_DOT":"-0.00000919","BSTAR":"-0.00004283400000","REV_AT_EPOCH":"6331","TIME_SYSTEM":"UTC","MEAN_ANOMALY":"302.5766","PERIAPSIS":"546.153","ECCENTRICITY":"0.00015530","NORAD_CAT_ID":"46681","ARG_OF_PERICENTER":"57.5373","EPOCH":"2021-12-10T19:46:07.117536","FILE":"3237005","OBJECT_TYPE":"PAYLOAD","TLE_LINE2":"2 46681  53.0573  14.2466 0001553  57.5373 302.5766 15.06394982 63316","LAUNCH_DATE":"2020-10-18","RA_OF_ASC_NODE":"14.2466","SEMIMAJOR_AXIS":"6925.364","ELEMENT_SET_NO":"999","EPHEMERIS_TYPE":"0","SITE":"AFETR","CLASSIFICATION_TYPE":"U","OBJECT_NAME":"STARLINK-1775","MEAN_MOTION":"15.06394982","APOAPSIS":"548.304","MEAN_MOTION_DDOT":"0.0000000000000","RCS_SIZE":"LARGE"},{"OBJECT_NAME":"STARLINK-1776","MEAN_MOTION":"15.06390442","APOAPSIS":"548.362","RCS_SIZE":"LARGE","MEAN_MOTION_DDOT":"0.0000000000000","SITE":"AFETR","EPHEMERIS_TYPE":"0","CLASSIFICATION_TYPE":"U","RA_OF_ASC_NODE":"14.4172","TLE_LINE2":"2 46682  53.0543  14.4172 0001616  61.5925 298.5227 15.06390442 63311","LAUNCH_DATE":"2020-10-18","OBJECT_TYPE":"PAYLOAD","SEMIMAJOR_AXIS":"6925.378","ELEMENT_SET_NO":"999","NORAD_CAT_ID":"46682","ECCENTRICITY":"0.00016160","ARG_OF_PERICENTER":"61.5925","FILE":"3237005","EPOCH":"2021-12-10T18:47:43.970784","PERIAPSIS":"546.124","BSTAR":"-0.00003794500000","TIME_SYSTEM":"UTC","REV_AT_EPOCH":"6331","MEAN_ANOMALY":"298.5227","DECAY_DATE":null,"MEAN_ELEMENT_THEORY":"SGP4","TLE_LINE1":"1 46682U 20073N   21344.78314781 -.00000847  00000-0 -37945-4 0  9994","MEAN_MOTION_DOT":"-0.00000847","CENTER_NAME":"EARTH","OBJECT_ID":"2020-073N","COUNTRY_CODE":"US","REF_FRAME":"TEME","PERIOD":"95.593","GP_ID":"191459510","INCLINATION":"53.0543"},{"PERIAPSIS":"546.331","MEAN_ANOMALY":"305.2445","BSTAR":"0.00003147800000","REV_AT_EPOCH":"6352","TIME_SYSTEM":"UTC","MEAN_ELEMENT_THEORY":"SGP4","TLE_LINE1":"1 46684U 20073Q   21344.77161833  .00000187  00000-0  31478-4 0  9993","MEAN_MOTION_DOT":"0.00000187","DECAY_DATE":null,"INCLINATION":"53.0544","GP_ID":"191458258","CENTER_NAME":"EARTH","OBJECT_ID":"2020-073Q","COUNTRY_CODE":"US","REF_FRAME":"TEME","PERIOD":"95.592","APOAPSIS":"548.097","RCS_SIZE":"LARGE","MEAN_MOTION_DDOT":"0.0000000000000","OBJECT_NAME":"STARLINK-1780","MEAN_MOTION":"15.06399984","SITE":"AFETR","EPHEMERIS_TYPE":"0","CLASSIFICATION_TYPE":"U","SEMIMAJOR_AXIS":"6925.349","ELEMENT_SET_NO":"999","RA_OF_ASC_NODE":"359.4722","OBJECT_TYPE":"PAYLOAD","TLE_LINE2":"2 46684  53.0544 359.4722 0001275  54.8663 305.2445 15.06399984 63523","LAUNCH_DATE":"2020-10-18","ARG_OF_PERICENTER":"54.8663","FILE":"3237005","EPOCH":"2021-12-10T18:31:07.823712","NORAD_CAT_ID":"46684","ECCENTRICITY":"0.00012750"},{"MEAN_ANOMALY":"297.1785","REV_AT_EPOCH":"6331","TIME_SYSTEM":"UTC","BSTAR":"0.00007625200000","PERIAPSIS":"546.156","GP_ID":"191458008","INCLINATION":"53.0581","REF_FRAME":"TEME","PERIOD":"95.592","COUNTRY_CODE":"US","CENTER_NAME":"EARTH","OBJECT_ID":"2020-073R","MEAN_MOTION_DOT":"0.00000854","TLE_LINE1":"1 46685U 20073R   21344.82738010  .00000854  00000-0  76252-4 0  9997","MEAN_ELEMENT_THEORY":"SGP4","DECAY_DATE":null,"CLASSIFICATION_TYPE":"U","EPHEMERIS_TYPE":"0","SITE":"AFETR","MEAN_MOTION_DDOT":"0.0000000000000","RCS_SIZE":"LARGE","APOAPSIS":"548.304","MEAN_MOTION":"15.06394613","OBJECT_NAME":"STARLINK-1781","EPOCH":"2021-12-10T19:51:25.640640","FILE":"3237005","ARG_OF_PERICENTER":"62.9362","ECCENTRICITY":"0.00015510","NORAD_CAT_ID":"46685","ELEMENT_SET_NO":"999","SEMIMAJOR_AXIS":"6925.365","OBJECT_TYPE":"PAYLOAD","TLE_LINE2":"2 46685  53.0581  14.2128 0001551  62.9362 297.1785 15.06394613 63311","LAUNCH_DATE":"2020-10-18","RA_OF_ASC_NODE":"14.2128"},{"PERIAPSIS":"546.098","BSTAR":"-0.00001498800000","REV_AT_EPOCH":"6326","TIME_SYSTEM":"UTC","MEAN_ANOMALY":"301.2236","DECAY_DATE":null,"MEAN_ELEMENT_THEORY":"SGP4","TLE_LINE1":"1 46686U 20073S   21344.47721762 -.00000505  00000-0 -14988-4 0  9998","MEAN_MOTION_DOT":"-0.00000505","CENTER_NAME":"EARTH","OBJECT_ID":"2020-073S","COUNTRY_CODE":"US","REF_FRAME":"TEME","PERIOD":"95.593","GP_ID":"191427756","INCLINATION":"53.0561","OBJECT_NAME":"STARLINK-1783","MEAN_MOTION":"15.06390725","APOAPSIS":"548.386","RCS_SIZE":"LARGE","MEAN_MOTION_DDOT":"0.0000000000000","SITE":"AFETR","EPHEMERIS_TYPE":"0","CLASSIFICATION_TYPE":"U","RA_OF_ASC_NODE":"15.7905","OBJECT_TYPE":"PAYLOAD","TLE_LINE2":"2 46686  53.0561  15.7905 0001652  58.8915 301.2236 15.06390725 63261","LAUNCH_DATE":"2020-10-18","SEMIMAJOR_AXIS":"6925.377","ELEMENT_SET_NO":"999","NORAD_CAT_ID":"46686","ECCENTRICITY":"0.00016520","ARG_OF_PERICENTER":"58.8915","FILE":"3236672","EPOCH":"2021-12-10T11:27:11.602368"},{"EPOCH":"2021-12-10T17:30:06.697152","FILE":"3237005","ARG_OF_PERICENTER":"54.6762","ECCENTRICITY":"0.00019070","NORAD_CAT_ID":"46687","ELEMENT_SET_NO":"999","SEMIMAJOR_AXIS":"6925.351","TLE_LINE2":"2 46687  53.0560 339.6522 0001907  54.6762 305.4405 15.06399231 63794","OBJECT_TYPE":"PAYLOAD","LAUNCH_DATE":"2020-10-18","RA_OF_ASC_NODE":"339.6522","CLASSIFICATION_TYPE":"U","EPHEMERIS_TYPE":"0","SITE":"AFETR","MEAN_MOTION_DDOT":"0.0000000000000","RCS_SIZE":"LARGE","APOAPSIS":"548.537","MEAN_MOTION":"15.06399231","OBJECT_NAME":"STARLINK-1784","GP_ID":"191459010","INCLINATION":"53.0560","REF_FRAME":"TEME","PERIOD":"95.592","COUNTRY_CODE":"US","OBJECT_ID":"2020-073T","CENTER_NAME":"EARTH","MEAN_MOTION_DOT":"0.00000680","TLE_LINE1":"1 46687U 20073T   21344.72924418  .00000680  00000-0  64543-4 0  9994","MEAN_ELEMENT_THEORY":"SGP4","DECAY_DATE":null,"MEAN_ANOMALY":"305.4405","REV_AT_EPOCH":"6379","TIME_SYSTEM":"UTC","BSTAR":"0.00006454300000","PERIAPSIS":"545.895"},{"CLASSIFICATION_TYPE":"U","SITE":"AFETR","EPHEMERIS_TYPE":"0","RCS_SIZE":"LARGE","MEAN_MOTION_DDOT":"0.0000000000000","APOAPSIS":"356.981","MEAN_MOTION":"15.72495174","OBJECT_NAME":"STARLINK-1786","FILE":"3236672","EPOCH":"2021-12-10T08:51:05.403456","ARG_OF_PERICENTER":"269.4509","NORAD_CAT_ID":"46688","ECCENTRICITY":"0.00077420","ELEMENT_SET_NO":"999","SEMIMAJOR_AXIS":"6729.905","RA_OF_ASC_NODE":"345.7528","TLE_LINE2":"2 46688  53.0548 345.7528 0007742 269.4509  90.5622 15.72495174 63680","LAUNCH_DATE":"2020-10-18","OBJECT_TYPE":"PAYLOAD","MEAN_ANOMALY":"90.5622","REV_AT_EPOCH":"6368","TIME_SYSTEM":"UTC","BSTAR":"0.00372770000000","PERIAPSIS":"346.560","INCLINATION":"53.0548","GP_ID":"191426754","PERIOD":"91.574","REF_FRAME":"TEME","CENTER_NAME":"EARTH","OBJECT_ID":"2020-073U","COUNTRY_CODE":"US","MEAN_MOTION_DOT":"0.00541698","MEAN_ELEMENT_THEORY":"SGP4","TLE_LINE1":"1 46688U 20073U   21344.36881254  .00541698  00000-0  37277-2 0  9996","DECAY_DATE":null},{"TIME_SYSTEM":"UTC","REV_AT_EPOCH":"6456","BSTAR":"-0.00003066500000","MEAN_ANOMALY":"293.8896","PERIAPSIS":"546.133","PERIOD":"95.592","REF_FRAME":"TEME","CENTER_NAME":"EARTH","OBJECT_ID":"2020-073V","COUNTRY_CODE":"US","GP_ID":"191458509","INCLINATION":"53.0567","DECAY_DATE":null,"MEAN_MOTION_DOT":"-0.00000738","MEAN_ELEMENT_THEORY":"SGP4","TLE_LINE1":"1 46689U 20073V   21344.82000799 -.00000738  00000-0 -30665-4 0  9998","CLASSIFICATION_TYPE":"U","EPHEMERIS_TYPE":"0","SITE":"AFETR","MEAN_MOTION":"15.06394761","OBJECT_NAME":"STARLINK-1788","RCS_SIZE":"LARGE","MEAN_MOTION_DDOT":"0.0000000000000","APOAPSIS":"548.326","NORAD_CAT_ID":"46689","ECCENTRICITY":"0.00015830","FILE":"3237005","EPOCH":"2021-12-10T19:40:48.690336","ARG_OF_PERICENTER":"66.2259","RA_OF_ASC_NODE":"14.2622","TLE_LINE2":"2 46689  53.0567  14.2622 0001583  66.2259 293.8896 15.06394761 64563","LAUNCH_DATE":"2020-10-18","OBJECT_TYPE":"PAYLOAD","ELEMENT_SET_NO":"999","SEMIMAJOR_AXIS":"6925.365"},{"PERIAPSIS":"546.175","BSTAR":"0.00019928000000","REV_AT_EPOCH":"6365","TIME_SYSTEM":"UTC","MEAN_ANOMALY":"295.4372","DECAY_DATE":null,"MEAN_ELEMENT_THEORY":"SGP4","TLE_LINE1":"1 46690U 20073W   21344.75413745  .00002689  00000-0  19928-3 0  9994","MEAN_MOTION_DOT":"0.00002689","CENTER_NAME":"EARTH","OBJECT_ID":"2020-073W","COUNTRY_CODE":"US","PERIOD":"95.592","REF_FRAME":"TEME","GP_ID":"191458760","INCLINATION":"53.0553","OBJECT_NAME":"STARLINK-1789","MEAN_MOTION":"15.06408188","APOAPSIS":"548.202","RCS_SIZE":"LARGE","MEAN_MOTION_DDOT":"0.0000000000000","SITE":"AFETR","EPHEMERIS_TYPE":"0","CLASSIFICATION_TYPE":"U","RA_OF_ASC_NODE":"349.5387","TLE_LINE2":"2 46690  53.0553 349.5387 0001464  64.6769 295.4372 15.06408188 63653","OBJECT_TYPE":"PAYLOAD","LAUNCH_DATE":"2020-10-18","SEMIMAJOR_AXIS":"6925.323","ELEMENT_SET_NO":"999","NORAD_CAT_ID":"46690","ECCENTRICITY":"0.00014640","ARG_OF_PERICENTER":"64.6769","FILE":"3237005","EPOCH":"2021-12-10T18:05:57.475680"},{"ARG_OF_PERICENTER":"54.4515","FILE":"3237005","EPOCH":"2021-12-10T18:04:35.552928","NORAD_CAT_ID":"46691","ECCENTRICITY":"0.00013960","SEMIMAJOR_AXIS":"6925.343","ELEMENT_SET_NO":"999","RA_OF_ASC_NODE":"359.5613","TLE_LINE2":"2 46691  53.0567 359.5613 0001396  54.4515 305.6604 15.06401792 63513","OBJECT_TYPE":"PAYLOAD","LAUNCH_DATE":"2020-10-18","EPHEMERIS_TYPE":"0","SITE":"AFETR","CLASSIFICATION_TYPE":"U","APOAPSIS":"548.175","RCS_SIZE":"LARGE","MEAN_MOTION_DDOT":"0.0000000000000","OBJECT_NAME":"STARLINK-1790","MEAN_MOTION":"15.06401792","INCLINATION":"53.0567","GP_ID":"191459511","CENTER_NAME":"EARTH","OBJECT_ID":"2020-073X","COUNTRY_CODE":"US","PERIOD":"95.592","REF_FRAME":"TEME","MEAN_ELEMENT_THEORY":"SGP4","TLE_LINE1":"1 46691U 20073X   21344.75318927  .00001108  00000-0  93281-4 0  9991","MEAN_MOTION_DOT":"0.00001108","DECAY_DATE":null,"MEAN_ANOMALY":"305.6604","BSTAR":"0.00009328100000","REV_AT_EPOCH":"6351","TIME_SYSTEM":"UTC","PERIAPSIS":"546.241"}];
